ONEWEB-0385             
1 49311U 21090AJ  24073.01000686 -.00000011  00000+0 -58774-4 0  9995
2 49311  87.9127  78.8632 0002307  93.1593 266.9804 13.20772452122069
ONEWEB-0386             
1 49312U 21090AK  24073.25463986 -.00000002  00000+0 -37018-4 0  9996
2 49312  87.9121  78.8156 0002260  89.0742 271.0650 13.20772009122102
ONEWEB-0387             
1 49313U 21090AL  24073.23883999 -.00000292  00000+0 -75009-3 0  9997
2 49313  87.9126  78.8747 0002104 100.2773 259.8598 13.20770332122103
ONEWEB-0388             
1 49314U 21090AM  24072.85315837 -.00001597  00000+0 -40211-2 0  9991
2 49314  87.9121 109.4649 0002228  92.6666 267.4722 13.19733880117421
ONEWEB-0389             
1 50469U 21132A   24073.24110197  .00000069  00000+0  14365-3 0  9990
2 50469  87.9262 170.1758 0002275 117.2369 242.8995 13.17650720110603
ONEWEB-0390             
1 50470U 21132B   24072.55925429  .00000118  00000+0  26971-3 0  9998
2 50470  87.9263 170.3184 0001746 118.6312 241.4996 13.17651927109228
ONEWEB-0391             
1 50471U 21132C   24072.56083445  .00000069  00000+0  14544-3 0  9991
2 50471  87.9271 170.2933 0002363 114.0078 246.1301 13.17650639110519
ONEWEB-0392             
1 50472U 21132D   24073.19838093  .00000073  00000+0  15435-3 0  9994
2 50472  87.9256 170.1820 0002180 114.7400 245.3959 13.17651964110635
